{
  "type": "FeatureCollection",
  "features": [
    {
      "type": "Feature",
      "properties": {
        "norad_id": 66576,
        "name": "STARLINK-35814",
        "group": "last-30-days",
        "lat": -35.197406586885,
        "lon": 30.67166264678337,
        "alt_km": 416.72221777955383,
        "timestamp": "2025-12-19T18:58:40.325831+00:00",
        "meta_object_name": "STARLINK-35814",
        "meta_object_id": "2025-268V",
        "meta_epoch": "2025-12-18T13:51:22.756608",
        "meta_mean_motion": 15.50643987,
        "meta_eccentricity": 7.852e-05,
        "meta_inclination": 42.9999,
        "meta_ra_of_asc_node": 86.9684,
        "meta_arg_of_pericenter": 254.7865,
        "meta_mean_anomaly": 105.2909,
        "meta_ephemeris_type": 0,
        "meta_classification_type": "U",
        "meta_norad_cat_id": 66576,
        "meta_element_set_no": 999,
        "meta_rev_at_epoch": 553,
        "meta_bstar": 0.0017580641,
        "meta_mean_motion_dot": 0.00104423,
        "meta_mean_motion_ddot": 0,
        "tle_line1": "1 66576U 25268V   25352.57734672  .00104423  00000+0  17581-2 0  9998",
        "tle_line2": "2 66576  42.9999  86.9684 0000785 254.7865 105.2909 15.50643987  5539"
      },
      "geometry": {
        "type": "Point",
        "coordinates": [
          30.67166264678337,
          -35.197406586885
        ]
      }
    },
    {
      "type": "Feature",
      "properties": {
        "norad_id": 66577,
        "name": "STARLINK-35815",
        "group": "last-30-days",
        "lat": -34.41744332611696,
        "lon": 32.52635132232474,
        "alt_km": 417.40778281192524,
        "timestamp": "2025-12-19T18:58:40.325843+00:00",
        "meta_object_name": "STARLINK-35815",
        "meta_object_id": "2025-268W",
        "meta_epoch": "2025-12-18T13:50:52.755072",
        "meta_mean_motion": 15.50637566,
        "meta_eccentricity": 8.26e-05,
        "meta_inclination": 42.9975,
        "meta_ra_of_asc_node": 86.9649,
        "meta_arg_of_pericenter": 201.5718,
        "meta_mean_anomaly": 158.5107,
        "meta_ephemeris_type": 0,
        "meta_classification_type": "U",
        "meta_norad_cat_id": 66577,
        "meta_element_set_no": 999,
        "meta_rev_at_epoch": 553,
        "meta_bstar": 0.0011034269,
        "meta_mean_motion_dot": 0.00065066,
        "meta_mean_motion_ddot": 0,
        "tle_line1": "1 66577U 25268W   25352.57699948  .00065066  00000+0  11034-2 0  9991",
        "tle_line2": "2 66577  42.9975  86.9649 0000826 201.5718 158.5107 15.50637566  5535"
      },
      "geometry": {
        "type": "Point",
        "coordinates": [
          32.52635132232474,
          -34.41744332611696
        ]
      }
    },
    {
      "type": "Feature",
      "properties": {
        "norad_id": 66578,
        "name": "STARLINK-35743",
        "group": "last-30-days",
        "lat": -33.7632095161399,
        "lon": 34.01903547219319,
        "alt_km": 416.49438909003857,
        "timestamp": "2025-12-19T18:58:40.325853+00:00",
        "meta_object_name": "STARLINK-35743",
        "meta_object_id": "2025-268X",
        "meta_epoch": "2025-12-19T06:50:43.672416",
        "meta_mean_motion": 15.50625704,
        "meta_eccentricity": 0.00017015,
        "meta_inclination": 42.9983,
        "meta_ra_of_asc_node": 82.8212,
        "meta_arg_of_pericenter": 290.053,
        "meta_mean_anomaly": 70.0147,
        "meta_ephemeris_type": 0,
        "meta_classification_type": "U",
        "meta_norad_cat_id": 66578,
        "meta_element_set_no": 999,
        "meta_rev_at_epoch": 564,
        "meta_bstar": 0.0011962099,
        "meta_mean_motion_dot": 0.00070588,
        "meta_mean_motion_ddot": 0,
        "tle_line1": "1 66578U 25268X   25353.28522769  .00070588  00000+0  11962-2 0  9992",
        "tle_line2": "2 66578  42.9983  82.8212 0001701 290.0530  70.0147 15.50625704  5649"
      },
      "geometry": {
        "type": "Point",
        "coordinates": [
          34.01903547219319,
          -33.7632095161399
        ]
      }
    },
    {
      "type": "Feature",
      "properties": {
        "norad_id": 66579,
        "name": "STARLINK-35868",
        "group": "last-30-days",
        "lat": -32.835021792557335,
        "lon": 36.032222813282274,
        "alt_km": 416.5377475295427,
        "timestamp": "2025-12-19T18:58:40.325863+00:00",
        "meta_object_name": "STARLINK-35868",
        "meta_object_id": "2025-268Y",
        "meta_epoch": "2025-12-19T06:50:13.889472",
        "meta_mean_motion": 15.50618793,
        "meta_eccentricity": 0.00019888,
        "meta_inclination": 43.0023,
        "meta_ra_of_asc_node": 82.8174,
        "meta_arg_of_pericenter": 263.3632,
        "meta_mean_anomaly": 96.7002,
        "meta_ephemeris_type": 0,
        "meta_classification_type": "U",
        "meta_norad_cat_id": 66579,
        "meta_element_set_no": 999,
        "meta_rev_at_epoch": 564,
        "meta_bstar": 0.0013518157,
        "meta_mean_motion_dot": 0.00079891,
        "meta_mean_motion_ddot": 0,
        "tle_line1": "1 66579U 25268Y   25353.28488298  .00079891  00000+0  13518-2 0  9996",
        "tle_line2": "2 66579  43.0023  82.8174 0001988 263.3632  96.7002 15.50618793  5642"
      },
      "geometry": {
        "type": "Point",
        "coordinates": [
          36.032222813282274,
          -32.835021792557335
        ]
      }
    },
    {
      "type": "Feature",
      "properties": {
        "norad_id": 66580,
        "name": "STARLINK-35872",
        "group": "last-30-days",
        "lat": -31.877303338580884,
        "lon": 37.99031254881844,
        "alt_km": 416.7332205803714,
        "timestamp": "2025-12-19T18:58:40.325873+00:00",
        "meta_object_name": "STARLINK-35872",
        "meta_object_id": "2025-268Z",
        "meta_epoch": "2025-12-19T06:49:44.291424",
        "meta_mean_motion": 15.50619765,
        "meta_eccentricity": 0.00015868,
        "meta_inclination": 43.0009,
        "meta_ra_of_asc_node": 82.8157,
        "meta_arg_of_pericenter": 262.1076,
        "meta_mean_anomaly": 97.9604,
        "meta_ephemeris_type": 0,
        "meta_classification_type": "U",
        "meta_norad_cat_id": 66580,
        "meta_element_set_no": 999,
        "meta_rev_at_epoch": 564,
        "meta_bstar": 0.0013015349,
        "meta_mean_motion_dot": 0.00076879,
        "meta_mean_motion_ddot": 0,
        "tle_line1": "1 66580U 25268Z   25353.28454041  .00076879  00000+0  13015-2 0  9992",
        "tle_line2": "2 66580  43.0009  82.8157 0001586 262.1076  97.9604 15.50619765  5643"
      },
      "geometry": {
        "type": "Point",
        "coordinates": [
          37.99031254881844,
          -31.877303338580884
        ]
      }
    },
    {
      "type": "Feature",
      "properties": {
        "norad_id": 66581,
        "name": "STARLINK-35744",
        "group": "last-30-days",
        "lat": -30.898631076999155,
        "lon": 39.88907163714467,
        "alt_km": 416.5177484924616,
        "timestamp": "2025-12-19T18:58:40.325883+00:00",
        "meta_object_name": "STARLINK-35744",
        "meta_object_id": "2025-268AA",
        "meta_epoch": "2025-12-19T06:49:14.702016",
        "meta_mean_motion": 15.50621305,
        "meta_eccentricity": 0.00015897,
        "meta_inclination": 42.999,
        "meta_ra_of_asc_node": 82.8126,
        "meta_arg_of_pericenter": 282.2077,
        "meta_mean_anomaly": 77.8605,
        "meta_ephemeris_type": 0,
        "meta_classification_type": "U",
        "meta_norad_cat_id": 66581,
        "meta_element_set_no": 999,
        "meta_rev_at_epoch": 564,
        "meta_bstar": 0.001053944,
        "meta_mean_motion_dot": 0.00062074,
        "meta_mean_motion_ddot": 0,
        "tle_line1": "1 66581U 25268AA  25353.28419794  .00062074  00000+0  10539-2 0  9999",
        "tle_line2": "2 66581  42.9990  82.8126 0001589 282.2077  77.8605 15.50621305  5645"
      },
      "geometry": {
        "type": "Point",
        "coordinates": [
          39.88907163714467,
          -30.898631076999155
        ]
      }
    },
    {
      "type": "Feature",
      "properties": {
        "norad_id": 66582,
        "name": "STARLINK-35746",
        "group": "last-30-days",
        "lat": -29.899099773459916,
        "lon": 41.74193456735006,
        "alt_km": 416.6273371210518,
        "timestamp": "2025-12-19T18:58:40.325895+00:00",
        "meta_object_name": "STARLINK-35746",
        "meta_object_id": "2025-268AB",
        "meta_epoch": "2025-12-19T06:48:44.947584",
        "meta_mean_motion": 15.50605467,
        "meta_eccentricity": 0.0001828,
        "meta_inclination": 43.0007,
        "meta_ra_of_asc_node": 82.8083,
        "meta_arg_of_pericenter": 264.1583,
        "meta_mean_anomaly": 95.9068,
        "meta_ephemeris_type": 0,
        "meta_classification_type": "U",
        "meta_norad_cat_id": 66582,
        "meta_element_set_no": 999,
        "meta_rev_at_epoch": 564,
        "meta_bstar": 0.00090938225,
        "meta_mean_motion_dot": 0.00053424,
        "meta_mean_motion_ddot": 0,
        "tle_line1": "1 66582U 25268AB  25353.28385356  .00053424  00000+0  90938-3 0  9997",
        "tle_line2": "2 66582  43.0007  82.8083 0001828 264.1583  95.9068 15.50605467  5641"
      },
      "geometry": {
        "type": "Point",
        "coordinates": [
          41.74193456735006,
          -29.899099773459916
        ]
      }
    }
  ]
}